[{"OBJECT_NAME":"SHIYAN-6 01 (SY-6 01)","OBJECT_ID":"2018-094B","EPOCH":"2026-03-09T23:04:36.967872","MEAN_MOTION":15.28649156,"ECCENTRICITY":0.00144834,"INCLINATION":97.3669,"RA_OF_ASC_NODE":84.0964,"ARG_OF_PERICENTER":135.6758,"MEAN_ANOMALY":224.5644,"EPHEMERIS_TYPE":0,"CLASSIFICATION_TYPE":"U","NORAD_CAT_ID":43711,"ELEMENT_SET_NO":999,"REV_AT_EPOCH":40632,"BSTAR":0.00024768444,"MEAN_MOTION_DOT":6.847e-5,"MEAN_MOTION_DDOT":0},{"OBJECT_NAME":"STARLINK-31036","OBJECT_ID":"2023-192C","EPOCH":"2026-03-09T08:57:15.663744","MEAN_MOTION":15.30189055,"ECCENTRICITY":0.0001236,"INCLINATION":53.1619,"RA_OF_ASC_NODE":64.4708,"ARG_OF_PERICENTER":102.6931,"MEAN_ANOMALY":257.4208,"EPHEMERIS_TYPE":0,"CLASSIFICATION_TYPE":"U","NORAD_CAT_ID":58533,"ELEMENT_SET_NO":999,"REV_AT_EPOCH":12593,"BSTAR":-1.668516e-6,"MEAN_MOTION_DOT":-4.08e-6,"MEAN_MOTION_DDOT":0}]
